QIANFAN-41              
1 62242U 24232F   25346.24362196  .00000133  00000+0  18667-3 0  9999
2 62242  89.0027  41.2474 0014161 184.7717 175.3301 13.50978302 99189
QIANFAN-42              
1 62243U 24232G   25346.21080088  .00000597  00000+0  25094-3 0  9990
2 62243  89.0017  37.4177 0017290  88.0533 272.2640 14.24486547101290
QIANFAN-43              
1 62244U 24232H   25346.23945718  .00000128  00000+0  17979-3 0  9996
2 62244  89.0031  41.3131 0015480 190.7465 169.3358 13.50977171 67799
QIANFAN-44              
1 62245U 24232J   25346.22717149  .00000149  00000+0  21209-3 0  9995
2 62245  89.0029  41.1251 0013807 186.8850 173.2114 13.50979513 99266
QIANFAN-45              
1 62246U 24232K   25346.26828165 -.00000195  00000+0 -32108-3 0  9994
2 62246  89.0030  41.2673 0014493 186.8152 173.2805 13.50975801 99190
QIANFAN-46              
1 62247U 24232L   25346.21891161  .00000132  00000+0  18516-3 0  9992
2 62247  89.0029  41.3415 0014328 192.4948 167.5850 13.50981481 99149
QIANFAN-47              
1 62248U 24232M   25346.22305503  .00000135  00000+0  19121-3 0  9990
2 62248  89.0025  41.2740 0014785 191.8516 168.2289 13.50977512 99174
QIANFAN-48              
1 62249U 24232N   25346.26006932  .00000138  00000+0  19518-3 0  9992
2 62249  89.0029  41.2721 0016938 195.3710 164.6929 13.50979291 99183
